{"fetched_at":"2026-03-29T16:36:15Z","count":15609,"tles":[{"name":"STARLINK-31164","line1":"1 58733U 24005F   26087.75574094  .00001143  00000+0  51046-4 0  9999","line2":"2 58733  43.0036 111.7244 0001523 269.9676  90.1001 15.27582847123354","category":"Starlink"}]}